{"type": "FeatureCollection", "features": [ {"type": "Feature", "properties": {"norad_id": 33492, "name": "GOSAT (IBUKI)", "group": "resource", "lat": 24.973487898359952, "lon": -66.12396086295253, "alt_km": 667.3912726746566, "timestamp": "2025-12-27T16:33:29.892625+00:00", "meta": {"OBJECT_NAME": "GOSAT (IBUKI)", "OBJECT_ID": "2009-002A", "EPOCH": "2025-12-27T07:40:27.046272", "MEAN_MOTION": 14.67544458, "ECCENTRICITY": 0.0001563, "INCLINATION": 98.0754, "RA_OF_ASC_NODE": 109.7197, "ARG_OF_PERICENTER": 113.0612, "MEAN_ANOMALY": 247.0757, "EPHEMERIS_TYPE": 0, "CLASSIFICATION_TYPE": "U", "NORAD_CAT_ID": 33492, "ELEMENT_SET_NO": 999, "REV_AT_EPOCH": 90625, "BSTAR": 0.00018893, "MEAN_MOTION_DOT": 1.024e-05, "MEAN_MOTION_DDOT": 0}, "tle": {"line1": "1 33492U 09002A   25361.31975748  .00001024  00000+0  18893-3 0  9991", "line2": "2 33492  98.0754 109.7197 0001563 113.0612 247.0757 14.67544458906251"}}, "geometry": {"type": "Point", "coordinates": [-66.12396086295253, 24.973487898359952]}}, {"type": "Feature", "properties": {"norad_id": 35681, "name": "DEIMOS-1", "group": "resource", "lat": -82.24425804451462, "lon": -113.85947435048301, "alt_km": 653.9640261291343, "timestamp": "2025-12-27T16:33:29.892637+00:00", "meta": {"OBJECT_NAME": "DEIMOS-1", "OBJECT_ID": "2009-041A", "EPOCH": "2025-12-27T12:04:41.441088", "MEAN_MOTION": 14.7497674, "ECCENTRICITY": 0.0002367, "INCLINATION": 97.7159, "RA_OF_ASC_NODE": 161.4202, "ARG_OF_PERICENTER": 57.2685, "MEAN_ANOMALY": 302.8753, "EPHEMERIS_TYPE": 0, "CLASSIFICATION_TYPE": "U", "NORAD_CAT_ID": 35681, "ELEMENT_SET_NO": 999, "REV_AT_EPOCH": 88157, "BSTAR": 0.00018419, "MEAN_MOTION_DOT": 1.191e-05, "MEAN_MOTION_DDOT": 0}, "tle": {"line1": "1 35681U 09041A   25361.50325742  .00001191  00000+0  18419-3 0  9999", "line2": "2 35681  97.7159 161.4202 0002367  57.2685 302.8753 14.74976740881576"}}, "geometry": {"type": "Point", "coordinates": [-113.85947435048301, -82.24425804451462]}}, {"type": "Feature", "properties": {"norad_id": 35682, "name": "DUBAISAT-1", "group": "resource", "lat": -7.643499412095819, "lon": -48.92815593074906, "alt_km": 648.3289452215395, "timestamp": "2025-12-27T16:33:29.892648+00:00", "meta": {"OBJECT_NAME": "DUBAISAT-1", "OBJECT_ID": "2009-041B", "EPOCH": "2025-12-27T09:11:43.157760", "MEAN_MOTION": 14.74645207, "ECCENTRICITY": 0.0009283, "INCLINATION": 97.98, "RA_OF_ASC_NODE": 131.8483, "ARG_OF_PERICENTER": 261.7216, "MEAN_ANOMALY": 98.294, "EPHEMERIS_TYPE": 0, "CLASSIFICATION_TYPE": "U", "NORAD_CAT_ID": 35682, "ELEMENT_SET_NO": 999, "REV_AT_EPOCH": 87977, "BSTAR": 0.00024482, "MEAN_MOTION_DOT": 1.584e-05, "MEAN_MOTION_DDOT": 0}, "tle": {"line1": "1 35682U 09041B   25361.38313840  .00001584  00000+0  24482-3 0  9995", "line2": "2 35682  97.9800 131.8483 0009283 261.7216  98.2940 14.74645207879774"}}, "geometry": {"type": "Point", "coordinates": [-48.92815593074906, -7.643499412095819]}}, {"type": "Feature", "properties": {"norad_id": 35931, "name": "OCEANSAT-2", "group": "resource", "lat": -64.5393203273723, "lon": 18.45067561717835, "alt_km": 898.6084772625445, "timestamp": "2025-12-27T16:33:29.892675+00:00", "meta": {"OBJECT_NAME": "OCEANSAT-2", "OBJECT_ID": "2009-051A", "EPOCH": "2025-12-27T13:26:24.559872", "MEAN_MOTION": 13.99623268, "ECCENTRICITY": 0.0015842, "INCLINATION": 98.2218, "RA_OF_ASC_NODE": 0.6566, "ARG_OF_PERICENTER": 6.0292, "MEAN_ANOMALY": 354.1063, "EPHEMERIS_TYPE": 0, "CLASSIFICATION_TYPE": "U", "NORAD_CAT_ID": 35931, "ELEMENT_SET_NO": 999, "REV_AT_EPOCH": 85532, "BSTAR": 6.9767e-05, "MEAN_MOTION_DOT": 6.5e-07, "MEAN_MOTION_DDOT": 0}, "tle": {"line1": "1 35931U 09051A   25361.56000648  .00000065  00000+0  69767-4 0  9991", "line2": "2 35931  98.2218   0.6566 0015842   6.0292 354.1063 13.99623268855329"}}, "geometry": {"type": "Point", "coordinates": [18.45067561717835, -64.5393203273723]}}, {"type": "Feature", "properties": {"norad_id": 35946, "name": "WORLDVIEW-2 (WV-2)", "group": "resource", "lat": -55.16652639232573, "lon": 84.94409761105268, "alt_km": 772.9890051587381, "timestamp": "2025-12-27T16:33:29.892687+00:00", "meta": {"OBJECT_NAME": "WORLDVIEW-2 (WV-2)", "OBJECT_ID": "2009-055A", "EPOCH": "2025-12-27T11:48:28.285056", "MEAN_MOTION": 14.37730677, "ECCENTRICITY": 0.0004593, "INCLINATION": 98.477, "RA_OF_ASC_NODE": 72.3737, "ARG_OF_PERICENTER": 34.0282, "MEAN_ANOMALY": 326.1199, "EPHEMERIS_TYPE": 0, "CLASSIFICATION_TYPE": "U", "NORAD_CAT_ID": 35946, "ELEMENT_SET_NO": 999, "REV_AT_EPOCH": 85097, "BSTAR": 7.9991e-05, "MEAN_MOTION_DOT": 1.97e-06, "MEAN_MOTION_DDOT": 0}, "tle": {"line1": "1 35946U 09055A   25361.49199404  .00000197  00000+0  79991-4 0  9998", "line2": "2 35946  98.4770  72.3737 0004593  34.0282 326.1199 14.37730677850978"}}, "geometry": {"type": "Point", "coordinates": [84.94409761105268, -55.16652639232573]}}, {"type": "Feature", "properties": {"norad_id": 36036, "name": "SMOS", "group": "resource", "lat": 81.33717555342956, "lon": 109.53021033101155, "alt_km": 751.1162313232426, "timestamp": "2025-12-27T16:33:29.892698+00:00", "meta": {"OBJECT_NAME": "SMOS", "OBJECT_ID": "2009-059A", "EPOCH": "2025-12-27T11:08:49.833024", "MEAN_MOTION": 14.39754478, "ECCENTRICITY": 0.0001035, "INCLINATION": 98.4382, "RA_OF_ASC_NODE": 186.295, "ARG_OF_PERICENTER": 83.831, "MEAN_ANOMALY": 276.2996, "EPHEMERIS_TYPE": 0, "CLASSIFICATION_TYPE": "U", "NORAD_CAT_ID": 36036, "ELEMENT_SET_NO": 999, "REV_AT_EPOCH": 84874, "BSTAR": 0.00015515, "MEAN_MOTION_DOT": 4.43e-06, "MEAN_MOTION_DDOT": 0}, "tle": {"line1": "1 36036U 09059A   25361.46446566  .00000443  00000+0  15515-3 0  9999", "line2": "2 36036  98.4382 186.2950 0001035  83.8310 276.2996 14.39754478848741"}}, "geometry": {"type": "Point", "coordinates": [109.53021033101155, 81.33717555342956]}}, {"type": "Feature", "properties": {"norad_id": 36110, "name": "YAOGAN-7", "group": "resource", "lat": 25.28100652030932, "lon": 67.21555619862248, "alt_km": 631.6740078141711, "timestamp": "2025-12-27T16:33:29.892709+00:00", "meta": {"OBJECT_NAME": "YAOGAN-7", "OBJECT_ID": "2009-069A", "EPOCH": "2025-12-27T06:06:34.402176", "MEAN_MOTION": 14.77753868, "ECCENTRICITY": 0.0023547, "INCLINATION": 98.0293, "RA_OF_ASC_NODE": 242.9593, "ARG_OF_PERICENTER": 231.8851, "MEAN_ANOMALY": 128.0236, "EPHEMERIS_TYPE": 0, "CLASSIFICATION_TYPE": "U", "NORAD_CAT_ID": 36110, "ELEMENT_SET_NO": 999, "REV_AT_EPOCH": 86423, "BSTAR": 0.00011125, "MEAN_MOTION_DOT": 7.48e-06, "MEAN_MOTION_DDOT": 0}, "tle": {"line1": "1 36110U 09069A   25361.25456484  .00000748  00000+0  11125-3 0  9991", "line2": "2 36110  98.0293 242.9593 0023547 231.8851 128.0236 14.77753868864238"}}, "geometry": {"type": "Point", "coordinates": [67.21555619862248, 25.28100652030932]}}, {"type": "Feature", "properties": {"norad_id": 36605, "name": "TANDEM-X", "group": "resource", "lat": 73.24095413480957, "lon": -147.4091948594914, "alt_km": 500.20016621308696, "timestamp": "2025-12-27T16:33:29.892720+00:00", "meta": {"OBJECT_NAME": "TANDEM-X", "OBJECT_ID": "2010-030A", "EPOCH": "2025-12-26T13:13:25.252608", "MEAN_MOTION": 15.1915819, "ECCENTRICITY": 0.0001776, "INCLINATION": 97.4455, "RA_OF_ASC_NODE": 5.7293, "ARG_OF_PERICENTER": 92.0278, "MEAN_ANOMALY": 268.116, "EPHEMERIS_TYPE": 0, "CLASSIFICATION_TYPE": "U", "NORAD_CAT_ID": 36605, "ELEMENT_SET_NO": 999, "REV_AT_EPOCH": 86043, "BSTAR": 6.7415e-05, "MEAN_MOTION_DOT": 1.349e-05, "MEAN_MOTION_DDOT": 0}, "tle": {"line1": "1 36605U 10030A   25360.55098672  .00001349  00000+0  67415-4 0  9995", "line2": "2 36605  97.4455   5.7293 0001776  92.0278 268.1160 15.19158190860436"}}, "geometry": {"type": "Point", "coordinates": [-147.4091948594914, 73.24095413480957]}}, {"type": "Feature", "properties": {"norad_id": 36795, "name": "CARTOSAT-2B", "group": "resource", "lat": 44.210051916372706, "lon": -122.12133181412216, "alt_km": 631.5090580279402, "timestamp": "2025-12-27T16:33:29.892730+00:00", "meta": {"OBJECT_NAME": "CARTOSAT-2B", "OBJECT_ID": "2010-035A", "EPOCH": "2025-12-27T11:04:40.893888", "MEAN_MOTION": 14.78748623, "ECCENTRICITY": 0.0012449, "INCLINATION": 97.7831, "RA_OF_ASC_NODE": 50.0117, "ARG_OF_PERICENTER": 32.9437, "MEAN_ANOMALY": 327.2548, "EPHEMERIS_TYPE": 0, "CLASSIFICATION_TYPE": "U", "NORAD_CAT_ID": 36795, "ELEMENT_SET_NO": 999, "REV_AT_EPOCH": 83447, "BSTAR": 0.00016235, "MEAN_MOTION_DOT": 1.143e-05, "MEAN_MOTION_DDOT": 0}, "tle": {"line1": "1 36795U 10035A   25361.46158442  .00001143  00000+0  16235-3 0  9998", "line2": "2 36795  97.7831  50.0117 0012449  32.9437 327.2548 14.78748623834476"}}, "geometry": {"type": "Point", "coordinates": [-122.12133181412216, 44.210051916372706]}}, {"type": "Feature", "properties": {"norad_id": 36834, "name": "YAOGAN-10", "group": "resource", "lat": 7.336871661719557, "lon": -157.57607769324724, "alt_km": 616.7041782174365, "timestamp": "2025-12-27T16:33:29.892741+00:00", "meta": {"OBJECT_NAME": "YAOGAN-10", "OBJECT_ID": "2010-038A", "EPOCH": "2025-12-27T13:17:18.421152", "MEAN_MOTION": 14.84663254, "ECCENTRICITY": 0.000125, "INCLINATION": 97.9135, "RA_OF_ASC_NODE": 21.2625, "ARG_OF_PERICENTER": 80.1714, "MEAN_ANOMALY": 84.538, "EPHEMERIS_TYPE": 0, "CLASSIFICATION_TYPE": "U", "NORAD_CAT_ID": 36834, "ELEMENT_SET_NO": 999, "REV_AT_EPOCH": 83173, "BSTAR": 0.00019898, "MEAN_MOTION_DOT": 1.629e-05, "MEAN_MOTION_DDOT": 0}, "tle": {"line1": "1 36834U 10038A   25361.55368543  .00001629  00000+0  19898-3 0  9997", "line2": "2 36834  97.9135  21.2625 0001250  80.1714  84.5380 14.84663254831730"}}, "geometry": {"type": "Point", "coordinates": [-157.57607769324724, 7.336871661719557]}}]}